COSMOS 2503             
1 40420U 15009A   26068.69626972  .00002817  00000+0  19590-3 0  9998
2 40420  97.8437 123.7175 0015321 225.7450 134.2520 15.06275973603958
STARLINK-6134           
1 57110U 23090K   26068.84503063  .00001200  00000+0  10390-3 0  9997
2 57110  43.0039 274.0734 0001195 270.6748  89.3957 15.02533503150433
